[ {"name": "STARLINK-32220", "line1": "1 60370U 24138R   26165.47270442 -.00001122  00000+0 -25781-4 0  9998", "line2": "2 60370  53.1602 220.1864 0001227  99.6210 260.4929 15.30193457105441"}, {"name": "STARLINK-32263", "line1": "1 60371U 24138S   26165.43260154 -.00000117  00000+0  81648-5 0  9991", "line2": "2 60371  53.1598 219.9421 0001344  88.3405 271.7749 15.30197652105347"}, {"name": "STARLINK-32268", "line1": "1 60372U 24138T   26165.42214993  .00002958  00000+0  11192-3 0  9990", "line2": "2 60372  53.1596 220.5895 0001027  83.7440 276.3678 15.30204119105434"}, {"name": "STARLINK-32223", "line1": "1 60373U 24138U   26165.44763150 -.00001239  00000+0 -28175-4 0  9990", "line2": "2 60373  53.1605 220.0356 0001388 117.9163 242.1979 15.31701914105346"}, {"name": "STARLINK-32180", "line1": "1 60374U 24138V   26165.43362189 -.00000314  00000+0  16348-5 0  9999", "line2": "2 60374  53.1614 219.9503 0001348 102.7677 257.3475 15.31710258105447"}, {"name": "STARLINK-32281", "line1": "1 60375U 24138W   26165.44210196 -.00000525  00000+0 -55864-5 0  9992", "line2": "2 60375  53.1608 220.0016 0001240  99.4249 260.6892 15.30194928105349"}, {"name": "STARLINK-32277", "line1": "1 60376U 24138X   26165.47587279 -.00000372  00000+0 -44790-6 0  9992", "line2": "2 60376  53.1595 220.2072 0001241  86.6848 273.4294 15.30187944105442"}, {"name": "STARLINK-32269", "line1": "1 60377U 24138Y   26165.50003471  .00021960  00000+0  71756-3 0  9997", "line2": "2 60377  53.1577 219.8893 0001304  76.2518 161.4977 15.31688773  5852"}, {"name": "STARLINK-11228 [DTC]", "line1": "1 60398U 24141A   26164.77277894  .00000228  00000+0  67322-5 0  9994", "line2": "2 60398  53.1583 332.6268 0000807 103.1486 256.9622 15.69711921106787"}, {"name": "STARLINK-11182 [DTC]", "line1": "1 60399U 24141B   26164.75807200 -.00001621  00000+0 -85302-5 0  9991", "line2": "2 60399  53.1599 332.5289 0000944  97.3657 262.7469 15.69701718106836"}, {"name": "STARLINK-11234 [DTC]", "line1": "1 60400U 24141C   26164.75316713 -.00000626  00000+0 -30654-6 0  9993", "line2": "2 60400  53.1603 332.4923 0001237  78.1398 281.9759 15.69700067106789"}, {"name": "STARLINK-11232 [DTC]", "line1": "1 60401U 24141D   26164.93926375 -.00000906  00000+0 -26218-5 0  9996", "line2": "2 60401  53.1586 331.5207 0000954  80.5736 279.5390 15.69703464106860"}, {"name": "STARLINK-11139 [DTC]", "line1": "1 60402U 24141E   26165.18902746  .00000626  00000+0  10023-4 0  9994", "line2": "2 60402  53.1599 330.2350 0000933  75.9179 284.1942 15.69718746106905"}, {"name": "STARLINK-11158 [DTC]", "line1": "1 60403U 24141F   26165.18422551  .00001138  00000+0  14243-4 0  9993", "line2": "2 60403  53.1600 330.9346 0000956  67.1331 292.9788 15.69715122106842"}, {"name": "STARLINK-11199 [DTC]", "line1": "1 60404U 24141G   26165.17931388  .00003270  00000+0  31808-4 0  9991", "line2": "2 60404  53.1584 330.8978 0000534  97.3473 262.7606 15.69728154106896"}, {"name": "STARLINK-11081 [DTC]", "line1": "1 60405U 24141H   26164.72874068 -.00001096  00000+0 -41982-5 0  9994", "line2": "2 60405  53.1577 333.0618 0000563  80.5587 279.5494 15.69697336106772"}, {"name": "STARLINK-11150 [DTC]", "line1": "1 60406U 24141J   26164.72383448 -.00000246  00000+0  28305-5 0  9991", "line2": "2 60406  53.1605 333.0295 0001212 102.4953 257.6201 15.69702475106829"}, {"name": "STARLINK-11136 [DTC]", "line1": "1 60407U 24141K   26165.16460638  .00001039  00000+0  13439-4 0  9999", "line2": "2 60407  53.1606 330.8011 0001416 114.1051 246.0115 15.69709741106848"}, {"name": "STARLINK-11196 [DTC]", "line1": "1 60408U 24141L   26165.15969611  .00001131  00000+0  14183-4 0  9994", "line2": "2 60408  53.1581 330.7700 0000845 124.6131 235.4967 15.69715502106899"}, {"name": "STARLINK-11174 [DTC]", "line1": "1 60409U 24141M   26164.76787130  .00000572  00000+0  95765-5 0  9999", "line2": "2 60409  53.1585 332.5878 0000897 120.1093 240.0014 15.69711926106784"}, {"name": "STARLINK-11191 [DTC]", "line1": "1 60410U 24141N   26164.76297134 -.00000110  00000+0  39525-5 0  9992", "line2": "2 60410  53.1595 332.5559 0001044 119.8280 240.2842 15.69706569106835"}, {"name": "STARLINK-32244", "line1": "1 60411U 24141P   26165.22118128 -.00000868  00000+0 -16206-4 0  9991", "line2": "2 60411  53.1591 153.9525 0001288  91.1326 268.9823 15.31693742104362"}, {"name": "STARLINK-32186", "line1": "1 60412U 24141Q   26165.25408105  .00000128  00000+0  14924-4 0  9994", "line2": "2 60412  53.1603 152.7435 0001145  95.7967 264.3166 15.34391120104321"}, {"name": "STARLINK-32178", "line1": "1 60413U 24141R   26165.24566838 -.00001329  00000+0 -28212-4 0  9993", "line2": "2 60413  53.1603 152.6877 0001289  89.8724 270.2426 15.34394139104323"}, {"name": "STARLINK-32234", "line1": "1 60414U 24141S   26165.27708992  .00000816  00000+0  38061-4 0  9997", "line2": "2 60414  53.1594 153.5894 0001230  91.2583 268.8559 15.31691602104375"}, {"name": "STARLINK-32265", "line1": "1 60415U 24141T   26165.25197877 -.00000621  00000+0 -72598-5 0  9990", "line2": "2 60415  53.1599 152.7286 0001244  85.5552 274.5593 15.34390512104386"}, {"name": "STARLINK-32197", "line1": "1 60416U 24141U   26165.21416046  .00001118  00000+0  47780-4 0  9993", "line2": "2 60416  53.1602 143.9470 0001153  81.6159 278.4973 15.31709253104443"}, {"name": "STARLINK-32255", "line1": "1 60417U 24141V   26165.27723142 -.00000233  00000+0  42473-5 0  9991", "line2": "2 60417  53.1605 152.8841 0001196  84.8227 275.2912 15.34385662104384"}, {"name": "STARLINK-32236", "line1": "1 60418U 24141W   26165.27933424 -.00000555  00000+0 -52971-5 0  9990", "line2": "2 60418  53.1602 152.8941 0001380  92.2658 267.8502 15.34384457104382"}, {"name": "STARLINK-32250", "line1": "1 60425U 24144A   26165.19454525 -.00000278  00000+0  28978-5 0  9993", "line2": "2 60425  53.1617 128.9410 0001108  80.2061 279.9067 15.34398468103188"}, {"name": "STARLINK-32226", "line1": "1 60426U 24144B   26165.50003471 -.00013301  00000+0 -38294-3 0  9991", "line2": "2 60426  53.1581 127.5807 0001276  80.6629 132.8888 15.34423427  5907"}, {"name": "STARLINK-32254", "line1": "1 60427U 24144C   26165.50003471 -.00015268  00000+0 -44165-3 0  9990", "line2": "2 60427  53.1590 127.4889 0001415  89.2091 170.9494 15.34398091  5757"}, {"name": "STARLINK-32193", "line1": "1 60428U 24144D   26165.50003471 -.00013701  00000+0 -40578-3 0  9995", "line2": "2 60428  53.1585 127.6419 0001093  83.8373  97.8955 15.33566440  5751"}, {"name": "STARLINK-32242", "line1": "1 60429U 24144E   26165.20270451 -.00000493  00000+0 -45097-5 0  9994", "line2": "2 60429  53.1608 128.9904 0001449  92.3259 267.7908 15.30191362104125"}, {"name": "STARLINK-32196", "line1": "1 60430U 24144F   26165.18986757 -.00001318  00000+0 -27886-4 0  9998", "line2": "2 60430  53.1602 127.4948 0001358 100.0904 260.0251 15.34383018104106"}, {"name": "STARLINK-32232", "line1": "1 60431U 24144G   26165.20692347 -.00000721  00000+0 -12213-4 0  9996", "line2": "2 60431  53.1595 129.0148 0001045 119.7715 240.3390 15.30188785104080"}, {"name": "STARLINK-32246", "line1": "1 60432U 24144H   26165.45599183  .00077558  00000+0  25561-2 0  9996", "line2": "2 60432  53.1603 127.7271 0001713 133.9768 226.1375 15.30794223104121"}, {"name": "STARLINK-32183", "line1": "1 60433U 24144J   26165.12789283 -.00000862  00000+0 -16967-4 0  9991", "line2": "2 60433  53.1603 129.2339 0001410 102.3969 257.7189 15.30191022104076"}, {"name": "STARLINK-32233", "line1": "1 60434U 24144K   26165.12893476  .00000475  00000+0  25206-4 0  9996", "line2": "2 60434  53.1600 127.8218 0001367  91.6451 268.4708 15.34387823104099"}, {"name": "STARLINK-32222", "line1": "1 60435U 24144L   26165.18143574 -.00000551  00000+0 -51841-5 0  9992", "line2": "2 60435  53.1598 127.4398 0001232  91.6062 268.5081 15.34400850104103"}, {"name": "STARLINK-32229", "line1": "1 60436U 24144M   26165.17513312 -.00000729  00000+0 -10453-4 0  9993", "line2": "2 60436  53.1599 127.3993 0001343  82.4685 277.6470 15.34388908104109"}, {"name": "STARLINK-32241", "line1": "1 60437U 24144N   26165.20038018  .00001604  00000+0  58624-4 0  9996", "line2": "2 60437  53.1608 127.5513 0001397  73.0378 287.0778 15.34383636104104"}, {"name": "STARLINK-32240", "line1": "1 60438U 24144P   26165.17303043 -.00001103  00000+0 -21532-4 0  9990", "line2": "2 60438  53.1598 127.3858 0001281  78.6277 281.4870 15.34386752104141"}, {"name": "STARLINK-32231", "line1": "1 60439U 24144Q   26165.19197507  .00001262  00000+0  48477-4 0  9990", "line2": "2 60439  53.1596 127.5042 0001145 103.4821 256.6309 15.34394636103205"}, {"name": "STARLINK-32195", "line1": "1 60440U 24144R   26165.16882204 -.00001624  00000+0 -36938-4 0  9997", "line2": "2 60440  53.1605 127.3625 0001622  98.2143 261.9043 15.34385548104107"}, {"name": "STARLINK-32177", "line1": "1 60441U 24144S   26165.16040693 -.00001054  00000+0 -20084-4 0  9998", "line2": "2 60441  53.1612 127.3077 0001478  92.0735 268.0437 15.34382641104101"}, {"name": "STARLINK-32252", "line1": "1 60442U 24144T   26165.17092717 -.00001551  00000+0 -34800-4 0  9997", "line2": "2 60442  53.1611 127.3710 0001347  81.0989 279.0166 15.34386526104140"}, {"name": "STARLINK-32237", "line1": "1 60443U 24144U   26165.19828113 -.00001346  00000+0 -28697-4 0  9996", "line2": "2 60443  53.1612 127.5363 0001629  77.5895 282.5290 15.34393084104107"}, {"name": "STARLINK-32249", "line1": "1 60444U 24144V   26165.18355066  .00000521  00000+0  26552-4 0  9998", "line2": "2 60444  53.1603 127.4486 0001022  89.6988 270.4132 15.34386254104143"}, {"name": "STARLINK-32228", "line1": "1 60445U 24144W   26165.21712729 -.00001208  00000+0 -24631-4 0  9997", "line2": "2 60445  53.1596 126.9497 0001307  87.8204 272.2949 15.34383074104152"}, {"name": "STARLINK-32247", "line1": "1 60446U 24144X   26165.15739417  .00002159  00000+0  85052-4 0  9992", "line2": "2 60446  53.1613 118.6228 0000947 100.6365 259.4743 15.30175900104268"}]